0 TITAN 3C TRANSTAGE DEB
1 27790U 65108BE  13283.35691181 -.00000117  00000-0  86509-3 0  8637
2 27790 026.6249 011.1012 6709105 011.6712 006.6668 02.74123142111009
0 TITAN 3C TRANSTAGE DEB
1 27790U 65108BE  13291.38467120 -.00000150  00000-0  83216-3 0  8643
2 27790 026.6300 007.7509 6708978 017.2866 008.7601 02.74124851111220
